NORAD_CAT_ID,OBJECT_NAME,OBJECT_TYPE,EPOCH,MEAN_MOTION,ECCENTRICITY,INCLINATION,RA_OF_ASC_NODE,ARG_OF_PERICENTER,MEAN_ANOMALY,BSTAR,MEAN_MOTION_DOT,MEAN_MOTION_DDOT,TLE_LINE0,TLE_LINE1,TLE_LINE2,SEMIMAJOR_AXIS,PERIOD,APOGEE,PERIGEE,DECAYED
54207.0,STARLINK-5262,PAYLOAD,2023-01-13 14:00:01,15.39674127,0.0001262,53.2147,122.6093,66.6026,17.2728,-0.030858,-0.01130301,0.0,0 STARLINK-5262,1 54207U 22141BC  23013.58334491 -.01130301  00000-0 -30858-1 0  9990,2 54207  53.2147 122.6093 0001262  66.6026  17.2728 15.39674127  1308,6825.209,93.526,447.936,446.213,0.0
54207.0,STARLINK-5262,PAYLOAD,2023-01-13 22:00:00,15.38899413,0.0001264999999999,53.2148,121.0409,63.582,68.4395,-0.033455,-0.0118874,0.0,0 STARLINK-5262,1 54207U 22141BC  23013.91667824 -.01188740  00000-0 -33455-1 0  9992,2 54207  53.2148 121.0409 0001265  63.5820  68.4395 15.38899413 12489,6827.5,93.573,450.228,448.501,0.0
54207.0,STARLINK-5262,PAYLOAD,2023-01-14 22:00:00,15.36463254,0.0001136,53.2147,116.3488,78.3324,192.3016,-0.0364839999999999,-0.01196273,0.0,0 STARLINK-5262,1 54207U 22141BC  23014.91667824 -.01196273  00000-0 -36484-1 0  9998,2 54207  53.2147 116.3488 0001136  78.3324 192.3016 15.36463254 12645,6834.715,93.722,457.356,455.80300000000005,0.0
54207.0,STARLINK-5262,PAYLOAD,2023-01-15 12:00:00,15.35002196,0.0001238,53.2147,113.6202,81.4494,175.9949,-0.036456,-0.01145123,0.0,0 STARLINK-5262,1 54207U 22141BC  23015.50001157 -.01145123  00000-0 -36456-1 0  9992,2 54207  53.2147 113.6202 0001238  81.4494 175.9949 15.35002196 12730,6839.051,93.811,461.763,460.069,0.0
54207.0,STARLINK-5262,PAYLOAD,2023-01-16 14:00:01,15.32338085,0.0001298,53.2144,108.5685,80.7956,41.3244,-0.038109,-0.0110345,0.0,0 STARLINK-5262,1 54207U 22141BC  23016.58334491 -.01103450  00000-0 -38109-1 0  9995,2 54207  53.2144 108.5685 0001298  80.7956  41.3244 15.32338085 12893,6846.976,93.974,469.729,467.952,0.0
54207.0,STARLINK-5262,PAYLOAD,2023-01-16 22:00:00,15.31566912,0.0001244,53.2141,107.0169,84.7515,76.7175,-0.041879,-0.01176316,0.0,0 STARLINK-5262,1 54207U 22141BC  23016.91667824 -.01176316  00000-0 -41879-1 0  9990,2 54207  53.2141 107.0169 0001244  84.7515  76.7175 15.31566912  1307,6849.274,94.021,471.991,470.287,0.0
54207.0,STARLINK-5262,PAYLOAD,2023-01-17 00:00:00,15.31328796,0.0001237,53.2143,106.6292,95.5219,165.6466,-0.039964,-0.01119459,0.0,0 STARLINK-5262,1 54207U 22141BC  23017.00001157 -.01119459  00000-0 -39964-1 0  9999,2 54207  53.2143 106.6292 0001237  95.5219 165.6466 15.31328796 12965,6849.984,94.036,472.696,471.001,0.0
54207.0,STARLINK-5262,PAYLOAD,2023-01-17 22:00:00,15.291193099999996,0.0001187,53.214,102.3772,91.986,181.6988,-0.044831,-0.01167477,0.0,0 STARLINK-5262,1 54207U 22141BC  23017.91667824 -.01167477  00000-0 -44831-1 0  9990,2 54207  53.2140 102.3772 0001187  91.9860 181.6988 15.29119310 13105,6856.581,94.172,479.26,477.632,0.0
54207.0,STARLINK-5262,PAYLOAD,2023-01-18 14:00:01,15.274528,0.0001132,53.2142,99.2949,86.8243,256.7882,-0.043981,-0.01094687,0.0,0 STARLINK-5262,1 54207U 22141BC  23018.58334491 -.01094687  00000-0 -43981-1 0  9992,2 54207  53.2142  99.2949 0001132  86.8243 256.7882 15.27452800  1303,6861.566999999999,94.275,484.209,482.655,0.0
54207.0,STARLINK-5262,PAYLOAD,2023-01-18 22:00:00,15.26671089,0.0001107999999999,53.2139,97.7548,87.5002,289.5994,-0.047805,-0.01171441,0.0,0 STARLINK-5262,1 54207U 22141BC  23018.91667824 -.01171441  00000-0 -47805-1 0  9991,2 54207  53.2139  97.7548 0001108  87.5002 289.5994 15.26671089  1300,6863.909000000001,94.323,486.535,485.014,0.0
54207.0,STARLINK-5262,PAYLOAD,2023-01-19 06:00:00,15.25872388,0.0001159999999999,53.2141,96.2176,92.9722,316.6321,-0.049395,-0.01180605,0.0,0 STARLINK-5262,1 54207U 22141BC  23019.25001157 -.01180605  00000-0 -49395-1 0  9998,2 54207  53.2141  96.2176 0001160  92.9722 316.6321 15.25872388 13304,6866.304,94.372,488.966,487.3730000000001,0.0
54207.0,STARLINK-5262,PAYLOAD,2023-01-19 14:00:01,15.25015535,0.0001165,53.214,94.6843,78.2889,2.8664,-0.047557,-0.01098745,0.0,0 STARLINK-5262,1 54207U 22141BC  23019.58334491 -.01098745  00000-0 -47557-1 0  9995,2 54207  53.2140  94.6843 0001165  78.2889   2.8664 15.25015535  1306,6868.876,94.425,491.541,489.941,0.0
54207.0,STARLINK-5262,PAYLOAD,2023-01-20 14:00:01,15.22569378,0.0001361,53.2138,90.0906,77.4417,92.4611,-0.0506449999999999,-0.01088357,0.0,0 STARLINK-5262,1 54207U 22141BC  23020.58334491 -.01088357  00000-0 -50645-1 0  9997,2 54207  53.2138  90.0906 0001361  77.4417  92.4611 15.22569378 13507,6876.231,94.577,499.032,497.16,0.0
54207.0,STARLINK-5262,PAYLOAD,2023-01-20 16:00:00,15.22381616,0.0001177999999999,53.2134,89.7085,82.1211,184.7725,-0.052057,-0.01124929,0.0,0 STARLINK-5262,1 54207U 22141BC  23020.66667824 -.01124929  00000-0 -52057-1 0  9990,2 54207  53.2134  89.7085 0001178  82.1211 184.7725 15.22381616  1300,6876.795999999999,94.589,499.471,497.851,0.0
54207.0,STARLINK-5262,PAYLOAD,2023-01-21 06:00:00,15.20993024,0.0001421,53.2136,87.0361,93.8062,130.3534,-0.057573,-0.01188652,0.0,0 STARLINK-5262,1 54207U 22141BC  23021.25001157 -.01188652  00000-0 -57573-1 0  9998,2 54207  53.2136  87.0361 0001421  93.8062 130.3534 15.20993024 13616,6880.981,94.675,503.824,501.86800000000005,0.0
54207.0,STARLINK-5262,PAYLOAD,2023-01-22 06:00:00,15.18553945,0.0001299,53.213,82.4706,97.1504,201.0856,-0.0621269999999999,-0.01193827,0.0,0 STARLINK-5262,1 54207U 22141BC  23022.25001157 -.01193827  00000-0 -62127-1 0  9990,2 54207  53.2130  82.4706 0001299  97.1504 201.0856 15.18553945 13763,6888.347,94.827,511.107,509.317,0.0
54207.0,STARLINK-5262,PAYLOAD,2023-01-22 22:00:00,15.16878421,0.0001139,53.2124,79.4361,92.2522,250.4986,-0.060976,-0.0112207,0.0,0 STARLINK-5262,1 54207U 22141BC  23022.91667824 -.01122070  00000-0 -60976-1 0  9994,2 54207  53.2124  79.4361 0001139  92.2522 250.4986 15.16878421 13868,6893.419,94.932,516.069,514.499,0.0
54207.0,STARLINK-5262,PAYLOAD,2023-01-23 14:00:01,15.15249631,0.0001155,53.212,76.4112,78.2435,305.0852,-0.062951,-0.01106831,0.0,0 STARLINK-5262,1 54207U 22141BC  23023.58334491 -.01106831  00000-0 -62951-1 0  9991,2 54207  53.2120  76.4112 0001155  78.2435 305.0852 15.15249631 13964,6898.358,95.034,521.02,519.4259999999999,0.0
54207.0,STARLINK-5262,PAYLOAD,2023-01-24 06:00:00,15.13667122,0.0001254,53.2116,73.3906,87.4586,332.5326,-0.071423,-0.01193092,0.0,0 STARLINK-5262,1 54207U 22141BC  23024.25001157 -.01193092  00000-0 -71423-1 0  9995,2 54207  53.2116  73.3906 0001254  87.4586 332.5326 15.13667122 14065,6903.165,95.133,525.896,524.164,0.0
54207.0,STARLINK-5262,PAYLOAD,2023-01-24 22:00:00,15.11989439,0.0001223,53.2112,70.3782,85.9406,6.8286,-0.069077,-0.01107587,0.0,0 STARLINK-5262,1 54207U 22141BC  23024.91667824 -.01107587  00000-0 -69077-1 0  9993,2 54207  53.2112  70.3782 0001223  85.9406   6.8286 15.11989439 14163,6908.271,95.239,530.98,529.2909999999999,0.0
54207.0,STARLINK-5262,PAYLOAD,2023-01-25 14:00:01,15.10374422,0.0001351999999999,53.2108,67.3756,75.0107,46.5983,-0.072997,-0.01118056,0.0,0 STARLINK-5262,1 54207U 22141BC  23025.58334491 -.01118056  00000-0 -72997-1 0  9996,2 54207  53.2108  67.3756 0001352  75.0107  46.5983 15.10374422 14261,6913.194,95.341,535.994,534.125,0.0
54207.0,STARLINK-5262,PAYLOAD,2023-01-25 22:00:00,15.09411321,0.0001255,53.2113,65.8746,89.236,45.3665,-0.048149,-0.00724179,0.0,0 STARLINK-5262,1 54207U 22141BC  23025.91667824 -.00724179  00000-0 -48149-1 0  9992,2 54207  53.2113  65.8746 0001255  89.2360  45.3665 15.09411321  1302,6916.135,95.401,538.868,537.132,0.0
54207.0,STARLINK-5262,PAYLOAD,2023-01-26 06:00:00,15.088572,0.0001351,53.2124,64.3779,87.7935,58.764,-0.0025892,-0.00041278,0.0,0 STARLINK-5262,1 54207U 22141BC  23026.25001157 -.00041278  00000-0 -25892-2 0  9994,2 54207  53.2124  64.3779 0001351  87.7935  58.7640 15.08857200 14362,6917.828,95.436,540.627,538.758,0.0
54207.0,STARLINK-5262,PAYLOAD,2023-01-26 14:00:01,15.08806027,0.0001354,53.2134,62.8823,85.4154,72.7574,0.0019791,0.0003131999999999,0.0,0 STARLINK-5262,1 54207U 22141BC  23026.58334491  .00031320  00000-0  19791-2 0  9996,2 54207  53.2134  62.8823 0001354  85.4154  72.7574 15.08806027  1300,6917.984,95.44,540.786,538.913,0.0
54207.0,STARLINK-5262,PAYLOAD,2023-01-26 22:00:00,15.08804978,0.0001335,53.2137,61.38399999999999,96.1974,73.5515,0.003439,0.00054817,0.0,0 STARLINK-5262,1 54207U 22141BC  23026.91667824  .00054817  00000-0  34390-2 0  9990,2 54207  53.2137  61.3840 0001335  96.1974  73.5515 15.08804978 14462,6917.986999999999,95.44,540.776,538.929,0.0
54207.0,STARLINK-5262,PAYLOAD,2023-01-27 14:00:01,15.08810879,0.0001242999999999,53.2139,58.3927,89.0379,103.9008,0.0011890999999999,0.00018672,0.0,0 STARLINK-5262,1 54207U 22141BC  23027.58334491  .00018672  00000-0  11891-2 0  9995,2 54207  53.2139  58.3927 0001243  89.0379 103.9008 15.08810879 14578,6917.969,95.439,540.694,538.974,0.0
54207.0,STARLINK-5262,PAYLOAD,2023-01-27 22:00:00,15.08799221,0.0001213,53.2143,56.8944,100.9748,103.539,0.0035899,0.00057245,0.0,0 STARLINK-5262,1 54207U 22141BC  23027.91667824  .00057245  00000-0  35899-2 0  9994,2 54207  53.2143  56.8944 0001213 100.9748 103.5390 15.08799221  1309,6918.005,95.44,540.7090000000001,539.031,0.0
54207.0,STARLINK-5262,PAYLOAD,2023-01-28 14:00:01,15.08819516,0.0001261,53.2147,53.9033,82.4242,145.2585,0.001743,0.00027545,0.0,0 STARLINK-5262,1 54207U 22141BC  23028.58334491  .00027545  00000-0  17430-2 0  9990,2 54207  53.2147  53.9033 0001261  82.4242 145.2585 15.08819516 14725,6917.943,95.439,540.68,538.936,0.0
54207.0,STARLINK-5262,PAYLOAD,2023-01-28 22:00:00,15.08809394,0.0001233,53.215,52.4051,93.667,145.6016,0.0036703,0.00058561,0.0,0 STARLINK-5262,1 54207U 22141BC  23028.91667824  .00058561  00000-0  36703-2 0  9992,2 54207  53.2150  52.4051 0001233  93.6670 145.6016 15.08809394  1307,6917.974,95.439,540.692,538.986,0.0
